satname,norad_id,inclination_deg,eccentricity,mean_motion_rev_per_day,perigee_km,apogee_km,l1,l2
STARLINK-1255,45399,53.0428,0.000335,15.48917896,417.613043513903,422.16772186030266,1 45399U 20019AR  26053.53970257  .00098423  00000+0  17793-2 0  9990,2 45399  53.0428 175.4865 0003350 202.3946 157.6916 15.48917896328081
STARLINK-1260,45404,53.161,0.0001155,15.30212349,474.38663987386917,475.96975568455673,1 45404U 20019AW  26053.67531091  .00004667  00000+0  16953-3 0  9996,2 45404  53.1610 198.9803 0001155  71.2515 288.8611 15.30212349327675
STARLINK-1263,45405,53.1609,0.0001188,15.30194744,474.4165828426085,476.04494302308103,1 45405U 20019AX  26053.66374538  .00001401  00000+0  59415-4 0  9991,2 45405  53.1609 199.0633 0001188  73.0884 287.0247 15.30194744327676
STARLINK-1265,45406,53.1602,0.0001151,15.30205833,474.40883436947115,475.98647200663527,1 45406U 20019AY  26053.80912229  .00000022  00000+0  12871-4 0  9996,2 45406  53.1602 198.4627 0001151  82.2342 277.8789 15.30205833327699
STARLINK-1278,45408,53.0479,0.0002819,15.52606532,407.2057544073841,411.03240938635827,1 45408U 20019BA  26053.67004640  .00105089  00000+0  16649-2 0  9996,2 45408  53.0479 202.9313 0002819 139.7820 220.3398 15.52606532327623
STARLINK-1296,45412,53.1605,0.0001299,15.30197356,474.3327124787911,476.1132153974213,1 45412U 20019BE  26053.67216622  .00000813  00000+0  39582-4 0  9998,2 45412  53.1605 199.0034 0001299  66.2619 293.8518 15.30197356327676
STARLINK-1298,45413,53.0377,0.000721,15.8841765,301.8989432634853,311.5385052178399,1 45413U 20019BF  26053.91668981  .00206867  00000+0  71451-3 0  9992,2 45413  53.0377 129.3461 0007210 315.7994   8.9347 15.88417650  5942
STARLINK-1309,45414,53.07,0.0002178,15.51757266,410.1164645276913,413.0740719037258,1 45414U 20019BG  26053.76435325  .00074035  00000+0  12163-2 0  9994,2 45414  53.0700 195.5479 0002178 355.9937   4.1054 15.51757266327713
STARLINK-1316,45415,53.1617,0.0001371,15.30191831,474.29986277660373,476.1790586021234,1 45415U 20019BH  26053.78279143  .00000941  00000+0  43913-4 0  9995,2 45415  53.1617 198.5399 0001371  86.2333 273.8825 15.30191831327712
STARLINK-1318,45416,53.0287,0.000852,16.06519462,250.7559240592509,262.06118968816463,1 45416U 20019BJ  26053.66037820  .00932292  47736-3  12067-2 0  9995,2 45416  53.0287 115.5741 0008520   5.4019 354.7104 16.06519462328844
STARLINK-1286,45417,53.0494,0.000184,15.49624561,416.5730626468985,419.07397611803117,1 45417U 20019BK  26053.64944276  .00039469  00000+0  70619-3 0  9997,2 45417  53.0494 202.9206 0001840  70.0254 290.0952 15.49624561327899
STARLINK-1308,45419,53.0542,8.12e-05,15.48980678,419.1547085336033,420.2586783494171,1 45419U 20019BM  26053.91668981  .00112865  00000+0  20313-2 0  9992,2 45419  53.0542 222.9463 0000812  83.3601 297.4852 15.48980678  5923
STARLINK-1329,45531,53.0504,0.0003442,15.53009591,405.60891202396033,410.28045065339484,1 45531U 20025A   26053.59767306  .00105734  00000+0  16507-2 0  9996,2 45531  53.0504 154.2653 0003442 218.5894 141.4870 15.53009591323105
STARLINK-1338,45532,53.0509,0.000423,15.51582588,409.2325808176829,414.97712542542376,1 45532U 20025B   26052.67894365  .00077779  00000+0  12845-2 0  9999,2 45532  53.0509 161.9124 0004230 274.0458  86.0067 15.51582588322918
STARLINK-1350,45535,53.0708,0.0001349,15.35659459,458.0400965794297,459.8847460032939,1 45535U 20025E   26053.82409140  .00013080  00000+0  38206-3 0  9998,2 45535  53.0708 102.9353 0001349  56.7585 303.3546 15.35659459323872
STARLINK-1362,45538,53.1569,0.0001459,15.29373185,476.68463769945356,478.6851665304903,1 45538U 20025H   26053.63345732  .00002945  00000+0  11429-3 0  9992,2 45538  53.1569 170.9307 0001459 116.5107 243.6043 15.29373185322871
STARLINK-1368,45540,53.1595,0.000108,15.30191318,474.5008276057688,475.9811572521339,1 45540U 20025K   26053.64311208  .00000783  00000+0  38559-4 0  9999,2 45540  53.1595 171.2192 0001080  82.8498 277.2625 15.30191318322863
STARLINK-1371,45542,53.0522,0.000248,15.44436777,431.34432408050725,434.72266464571203,1 45542U 20025M   26053.61769647  .00083759  00000+0  17719-2 0  9999,2 45542  53.0522 161.2736 0002480 227.7109 132.3686 15.44436777323002
STARLINK-1372,45543,53.1619,0.0001247,15.30195122,474.3750194674549,476.0842491060457,1 45543U 20025N   26053.75051455  .00000659  00000+0  34364-4 0  9991,2 45543  53.1619 170.4129 0001247  93.4338 266.6806 15.30195122321982
STARLINK-1373,45544,53.0497,0.0004359,15.48362284,418.55257909432294,424.4805170575364,1 45544U 20025P   26053.91668981  .00030586  00000+0  57432-3 0  9990,2 45544  53.0497 159.7874 0004359 296.3707  16.8870 15.48362284  5837
STARLINK-1294,45551,53.0278,0.0008278,16.00425038,267.7347894666036,278.7468105522994,1 45551U 20025W   26053.91668981  .00729034  25541-3  13578-2 0  9994,2 45551  53.0278  50.6794 0008278  57.6770 227.6787 16.00425038  6076
STARLINK-1327,45555,53.0478,0.0004562,15.50822888,411.22350470125093,417.42094449777505,1 45555U 20025AA  26053.26524672  .00091935  00000+0  15556-2 0  9993,2 45555  53.0478 140.9065 0004562 352.5512   7.5427 15.50822888323255
STARLINK-1356,45564,53.0522,0.0004884,15.43043252,433.8050856625059,440.46224204695955,1 45564U 20025AK  26053.64705739  .00034471  00000+0  77451-3 0  9995,2 45564  53.0522 145.3613 0004884 339.8400  20.2411 15.43043252323228
STARLINK-1357,45565,53.0533,0.0002037,15.52177293,408.9875035047089,411.75314138787326,1 45565U 20025AL  26053.14838050  .00072031  00000+0  11662-2 0  9999,2 45565  53.0533 113.0000 0002037   6.6030 353.5005 15.52177293323649
STARLINK-1361,45567,53.0512,0.0006895,15.44874405,427.05171808395426,436.4425483036284,1 45567U 20025AN  26053.82305980  .00058030  00000+0  12155-2 0  9998,2 45567  53.0512 144.8378 0006895 336.6509  23.4182 15.44874405323257
STARLINK-1363,45568,53.0446,0.0007371,15.73377381,344.29374122047284,354.21125882140495,1 45568U 20025AP  26053.78463676  .00117063  00000+0  81944-3 0  9996,2 45568  53.0446 111.9557 0007371   4.7157 355.3929 15.73377381323709
STARLINK-1366,45569,53.0443,0.0007909,15.72664199,345.9638991155816,356.6085007332222,1 45569U 20025AQ  26053.53882928  .00090620  00000+0  65684-3 0  9997,2 45569  53.0443 113.8797 0007909   0.0592   0.0425 15.72664199323657
STARLINK-1376,45570,53.1607,0.0001264,15.29355549,476.87102544348636,478.6041905443881,1 45570U 20025AR  26053.55793624  .00000051  00000+0  14107-4 0  9999,2 45570  53.1607 147.9996 0001264  93.4674 266.6471 15.29355549323183
STARLINK-1320,45572,53.0496,0.000793,15.65857342,365.4222948692959,376.12606800305457,1 45572U 20025AT  26053.91668981  .00219842  00000+0  20698-2 0  9998,2 45572  53.0496  58.4857 0007930   1.2152 171.2069 15.65857342  6007
STARLINK-1321,45573,53.0491,0.0003536,15.45599647,427.20947608370716,432.0239194987853,1 45573U 20025AU  26053.25232905  .00078590  00000+0  15995-2 0  9996,2 45573  53.0491 132.2185 0003536 337.0537  23.0310 15.45599647323074
STARLINK-1331,45578,53.0536,0.0002562,15.45659836,427.69586318607526,431.1840656226359,1 45578U 20025AZ  26053.77666096  .00078414  00000+0  15928-2 0  9991,2 45578  53.0536 136.3820 0002562  37.9852 322.1334 15.45659836323373
STARLINK-1333,45580,53.16,0.000129,15.30199716,474.3318348659195,476.09999991860786,1 45580U 20025BB  26053.54032541  .00000412  00000+0  26031-4 0  9993,2 45580  53.1600 148.1768 0001290  95.7358 264.3789 15.30199716323181
STARLINK-1335,45581,53.0679,0.0001617,15.10807454,532.6185463823967,534.8538461740736,1 45581U 20025BC  26053.91668981  .00048975  00000+0  29122-2 0  9996,2 45581  53.0679 142.9151 0001617 147.0969 130.1292 15.10807454  5737
STARLINK-1337,45582,53.0533,0.0002959,15.55360766,399.0981523931441,403.1101072937854,1 45582U 20025BD  26053.72684786  .00095772  00000+0  13749-2 0  9992,2 45582  53.0533 134.2856 0002959  37.1076 323.0139 15.55360766323387
STARLINK-1347,45586,53.0465,0.000576,15.50980181,409.9507856744349,417.7751696487003,1 45586U 20025BH  26053.61772375  .00093658  00000+0  15751-2 0  9992,2 45586  53.0465 102.0839 0005760 348.9046  11.1835 15.50980181323823
STARLINK-1364,45589,53.0525,0.000548,15.46758128,422.4882687872614,429.94584083133304,1 45589U 20025BL  26053.64552352  .00087818  00000+0  17141-2 0  9995,2 45589  53.0525 135.1828 0005480   0.2182 359.8826 15.46758128323366
STARLINK-1365,45590,53.0523,0.0001864,15.43587234,434.26230322637275,436.8024391679555,1 45590U 20025BM  26053.84823681  .00028892  00000+0  63954-3 0  9996,2 45590  53.0523 164.1423 0001864 337.7856  22.3068 15.43587234322990
STARLINK-1443,45660,53.0884,0.000188,15.14526791,521.1182522349318,523.7128599960315,1 45660U 20035D   26053.91668981  .01284458  00000+0  63637-1 0  9992,2 45660  53.0884 132.8053 0001880  86.2414 105.8924 15.14526791  5730
STARLINK-1446,45663,53.0243,0.000117,15.42157234,438.9461139588457,440.5414980674532,1 45663U 20035G   26053.26100942  .00020487  00000+0  47897-3 0  9992,2 45663  53.0243  72.6228 0001170 195.0463 165.0506 15.42157234317296
STARLINK-1448,45665,53.0513,0.0006312,15.49180418,414.83194124962483,423.41280148003534,1 45665U 20035J   26053.69777963  .00084823  00000+0  15225-2 0  9997,2 45665  53.0513 124.7378 0006312  20.1833 339.9423 15.49180418316594
STARLINK-1451,45668,53.0535,7.45e-05,15.09223363,538.05655487895,539.0871444975537,1 45668U 20035M   26053.25487941  .00021592  00000+0  13562-2 0  9992,2 45668  53.0535 135.7001 0000745 285.1983  74.8924 15.09223363316414
STARLINK-1452,45669,53.0322,0.0007849,15.42416803,433.62812227359973,444.3296307765686,1 45669U 20035N   26053.53010711  .00080380  00000+0  18197-2 0  9990,2 45669  53.0322  93.8106 0007849 353.5845   6.5057 15.42416803317025
STARLINK-1453,45670,53.0483,0.0008203,15.49292607,413.2187045390765,424.3697499104619,1 45670U 20035P   26053.00003471  .00085345  00000+0  15249-2 0  9990,2 45670  53.0483  88.6861 0008203 342.5036 130.6704 15.49292607  5900
